full_name,e,q,i,om,w,ad,tp_cal,per_y,class,data_arc,condition_code,n_obs_used,two_body,A1,A2,A3,DT
    1P/Halley,0.9679,575,162.20,59.07,112.21,35.28,1986-02-08.1,75.9,HTC,57852,0,8518,,4.9e-10,1.6e-10,,
    2P/Encke,0.8484,337,11.48,334.29,187.03,4.10,2023-10-21.6,3.31,ETc,2133,1,570,,3.2e-10,7.3e-12,,
    3D/Biela,0.7513,879,13.22,250.67,221.66,6.19,1832-11-26.6,6.65,JFc,,,26,,3.9e-09,-2.5e-10,,
